#dP2022  5 31 12  0  0.00000000      96 __u+U ITR00 EXT  IAC
## 2212 216000.00000000   900.00000000 59730 0.5000000000000
+  117   C06C07C08C09C10C11C12C13C14C16C19C20C21C22C23C24C25
+        C26C27C28C29C30C32C33C34C35C36C37C38C39C40C41C42C43
+        C44C45C46E01E02E03E04E05E07E08E09E10E11E12E13E14E15
+        E18E19E21E24E25E26E27E30E31E33E34E36G01G02G03G04G05
+        G06G07G08G09G10G11G12G13G14G15G16G17G18G19G20G21G22
+        G23G24G25G26G27G28G29G30G31G32J02J03R01R02R03R04R05
+        R07R08R09R11R12R13R14R15R17R18R19R20R21R22R24  0  0
++         9  7 13 10  7 10  9 12  9  9 10  7  9  9  7  8  8
++         9  8  9  9  8  7  8  8  8  8  8 11 10 12 10  8  8
++        10 10  8 10  8  8  8  8  9  8  8 10  8  8  9 11  7
++         8  8 10 10  8  8  8  8  9  9  8  8  8  8  9  8  7
++         7  8  7  9  8  8  8  8  7  8  8  7  8  8  8  9  8
++         9  7  8  8  8  8  9  8  9  9 12  9  7 10  8  8  8
++         8  8  9  8  8 10  7  8  8 10  9  9  8  8 10  0  0
%c M  cc GPS ccc cccc cccc cccc cccc ccccc ccccc ccccc ccccc
%c cc cc ccc ccc cccc cccc cccc cccc ccccc ccccc ccccc ccccc
%f  0.0000000  0.000000000  0.00000000000  0.000000000000000
%f  0.0000000  0.000000000  0.00000000000  0.000000000000000
%i    0    0    0    0      0      0      0      0         0
%i    0    0    0    0      0      0      0      0         0
/* IAC                                ULTRA-RAPID PREDICTION
/* S/V CLOCKS ARE ALIGNED TO GNSS TIME                      
/* G:C1WC2W R:C1PC2P E:C1XC5X C:C2IC6I J:C1CC2S             
/* PCV:IGS14_2196 OL/AL:FES2004  NONE     YN ORB:CoN CLK:CoN
*  2022 06 01  1 30  0.00000000
PC06  -4976.438992  39935.970235 -12208.183371     97.984703
PC07  -7088.890125  26026.207796  32418.430104   -240.035843
PC08 -19993.827640  30571.141559 -21190.325018    341.040709
PC09   -856.466612  41616.016436  -4314.303851   -840.622155
PC10   2473.424720  28204.117649  31599.299735    129.149437
PC11  -1952.423976  26557.140693   8453.740901    386.897649
PC12 -12088.744332  13606.424408  21185.215653   -606.813421
PC13 -13136.849900  30963.167679 -25464.616608    -16.664860
PC14  -1586.580676  16119.850588 -22706.125237    489.260694
PC16  -6820.671519  38398.436848 -15519.726453    136.328463
PC19  -9211.519637 -17691.935702  19534.752980    863.857540
PC20  10413.803581 -12680.012321  22594.850225   -938.889085
PC21 -25053.423467   -338.991348 -12236.058707   -398.082965
PC22 -24320.710189 -12701.328877   4998.530502   -966.616849
PC23  15588.273011   7562.351539  21883.900430   -931.523411
PC24 -18640.906619  20113.275480   5222.596225   -972.294270
PC25   -781.029640  19518.058801  19930.893293   -728.445349
PC26 -23672.130236  10255.479393 -10691.246062    729.854429
PC27  15471.652429  -3844.768064 -22928.485008    731.981365
PC28  14628.251648  16287.897892 -17309.172524     73.322176
PC29  -5978.864824 -27240.851568   1003.584787    562.296433
PC30   7051.668938 -21828.354263 -15918.043265    499.287539
PC32  25102.762450    155.933564  12226.603443   -965.473897
PC33   9285.133689  17652.378287 -19517.918038   -967.188760
PC34  -6461.593286  22512.448612  15138.868532   -390.918104
PC35 -14946.314842 -16784.583953  16550.111771    299.976370
PC36   1764.378878 -19690.274439 -19669.322845   -965.876810
PC37  23790.756426  -8711.000756  11696.950762   -908.407688
PC38 -24722.948111  31404.070911 -13634.846111    236.134969
PC39  -8743.306863  35302.351818 -21162.685824     34.981672
PC40 -11848.023928  19566.151447  35397.822487    273.721336
PC41  24187.686359  12823.808120  -5373.584235   -967.737973
PC42 -11441.389924  12180.850233 -22297.635914   -965.606494
PC43   5452.342523  27353.755440   -347.960133   -920.808248
PC44 -15501.283627   4132.081918  22816.620054    677.838639
PC45 -15756.163265  -7191.289234 -21879.506499    771.740676
PC46  17618.223926 -20554.352853  -6696.081605   -354.866408
PE01  28955.846496  -5949.492452  -1510.914299   -487.459909
PE02 -28931.958610   6059.433200   1675.289898    302.787722
PE03 -19743.407421    651.253830 -22034.771572   -564.130368
PE04   5820.953496 -18053.967693  22734.588511  -1040.229201
PE05 -22348.643938 -17511.136556  -8353.836983   -176.355603
PE07  11936.877078  25198.994476  -9942.086776   -674.077870
PE08  -5411.399022  18170.184019 -22727.806424   -538.813682
PE09 -12097.769119 -25114.189151   9938.489852   -537.833497
PE10   6696.684895 -28396.758655   4984.750314   -516.715599
PE11   -667.739651 -25818.378766  14463.635192   3496.148538
PE12  12756.615119 -26305.095334  -4717.468287   4585.590636
PE13    204.331951  26107.888276 -13940.731587    429.029009
PE14   5031.372271 -21813.736767 -18376.468728  -1821.053050
PE15 -12742.042897  26264.677194   4869.419889    742.190908
PE18   9783.656996  26589.150683   5228.697011  -1382.539664
PE19  20730.128927   1931.699810  21053.027553  -5504.042191
PE21  24562.336762   6299.143592  15270.257748   -737.510981
PE24  -4452.565374 -16159.564003 -24410.849070   -645.962715
PE25 -24387.088032  -6470.556205 -15475.167181   -575.968263
PE26  13524.459116   9718.447400 -24472.984191  -1210.284676
PE27   5819.607086  15798.052853  24348.004179   -311.749913
PE30 -17163.645798  15616.476810  18374.105268   -556.126962
PE31  16171.734229 -15908.521268 -19008.239354   -497.539874
PE33  18109.516636 -10941.604650 -20707.404282   -456.082865
PE34 -18083.883526  11177.592015  20585.595346   -519.895852
PE36 -12918.222806 -10642.969195  24410.917216   -381.693982
PG01 -13904.123020  22116.874292   3277.400281    350.794403
PG02  16681.174308  -5594.101813 -19294.128222   -653.026194
PG03 -15866.156900  12634.625018 -17196.974824   -263.887521
PG04  -6827.835282  15844.465401 -20158.331239   -161.733650
PG05  25664.914421  -5596.304811   4279.756144    -83.893351
PG06  10430.875309  11089.530188 -21693.035618    325.492219
PG07  -2799.779541  23692.818082  11530.540769    322.162905
PG08 -13100.563485   7659.316612  21766.581568    -70.304199
PG09   3029.885770  22238.472420 -14242.350513   -332.230980
PG10 -14927.728238 -11852.761013  18766.128669   -436.846326
PG11  17590.304382  -3254.953158 -19629.024706    -18.790430
PG12  19930.008966  -9857.767418 -14715.082378   -224.173026
PG13  16806.754910   2791.075768  20269.626730    321.748022
PG14  13197.963066  13184.524289  18939.388072   -110.408541
PG15  12052.382841 -10034.810466  21024.379876    -56.796100
PG16 -26793.600753   -979.413598   -238.403333   -505.530669
PG17  13551.769244  22783.425250   -625.968674    619.550725
PG18   4215.366974 -23833.206969  10801.020696    154.785022
PG19  16719.561636  18688.447551  -9339.059163    164.754139
PG20  25481.940070   -383.430623  -7038.330472    513.522844
PG21 -16700.834495  15310.551674  13913.518405    161.261110
PG22 -17575.717695 -16717.580406 -10606.869797    268.359854
PG23  -3002.157384 -14795.331061  21846.982918    -25.411844
PG24  14454.029581 -20538.119929   7672.061263    230.289657
PG25   5318.854752 -15355.601657 -21250.557934    331.803584
PG26 -23830.052527  -5308.702591 -10917.002330    209.423922
PG27 -18605.110710  -5908.484763  17974.531264    210.766006
PG28  20432.769855  10221.896696  13855.900508    347.269165
PG29  -1421.789193 -22315.767454 -14332.948064   -519.494711
PG30   4946.575898  18978.524872  17882.919484   -529.921927
PG31 -12828.014798  -8606.338518 -21714.941732   -179.949922
PG32 -16399.641440 -20799.911985  -2902.180815   -140.313987
PJ02 -30545.618191  25421.929500  18964.968517     -0.381671
PJ03 -26843.652752  27102.951472  22975.911391     -2.541765
PR01 -22743.111867  -8896.148211  -7333.095366      9.326379
PR02 -13185.921262   3787.209902 -21470.908771    520.007959
PR03   3432.315019  13760.466946 -21139.959443     57.630850
PR04  17839.526498  15797.246254  -9062.032691    144.244145
PR05  22361.566190   9267.117899   8031.157795     93.850167
PR07  -4184.921815 -14091.381110  20901.908105     35.835361
PR08 -17910.886823 -15802.322856   9046.346146    -65.436386
PR09  21111.829001 -14052.230277  -3079.359787     58.080708
PR11  -7224.611755  -8377.417605 -22972.161515     37.504242
PR12 -20906.367475   4072.758978 -14020.941898     18.704633
PR13 -21602.431333  13443.005391   1784.246410    -23.064915
PR14  -9151.149502  15326.015788  18225.575238     25.438562
PR15   8040.150594   8050.647705  22850.610601     95.731548
PR17  -2059.515856  25234.692479   3262.890494    530.984444
PR18   5262.753039  21175.340881 -13160.648332    118.765743
PR19   9531.352986   7585.817415 -22418.524980   -191.071380
PR20   9264.510902 -14376.081024 -18942.777410    -71.721066
PR21   1502.858200 -25392.039783  -1749.262279   -305.799021
PR22  -5403.672134 -20784.953586  13822.456219   -186.720751
PR24  -9118.974307  15188.982976  18366.827369     96.485228
EOF
